{
  "type": "FeatureCollection",
  "features": [
    {
      "type": "Feature",
      "properties": {
        "norad_id": 54259,
        "name": "EUTELSAT 10B",
        "group": "eutelsat",
        "lat": 0.06529058248508082,
        "lon": 161.34412045652263,
        "alt_km": 35784.319223793296,
        "timestamp": "2025-12-24T03:53:29.313977+00:00",
        "meta_object_name": "EUTELSAT 10B",
        "meta_object_id": "2022-157A",
        "meta_epoch": "2025-12-23T01:11:43.653984",
        "meta_mean_motion": 1.00272927,
        "meta_eccentricity": 7.192e-05,
        "meta_inclination": 0.061,
        "meta_ra_of_asc_node": 96.1012,
        "meta_arg_of_pericenter": 1.3181,
        "meta_mean_anomaly": 22.3816,
        "meta_ephemeris_type": 0,
        "meta_classification_type": "U",
        "meta_norad_cat_id": 54259,
        "meta_element_set_no": 999,
        "meta_rev_at_epoch": 1126,
        "meta_bstar": 0,
        "meta_mean_motion_dot": 9e-07,
        "meta_mean_motion_ddot": 0,
        "tle_line1": "1 54259U 22157A   25357.04981081  .00000090  00000+0  00000+0 0  9992",
        "tle_line2": "2 54259   0.0610  96.1012 0000719   1.3181  22.3816  1.00272927 11266"
      },
      "geometry": {
        "type": "Point",
        "coordinates": [
          161.34412045652263,
          0.06529058248508082
        ]
      }
    },
    {
      "type": "Feature",
      "properties": {
        "norad_id": 59346,
        "name": "EUTELSAT 36D",
        "group": "eutelsat",
        "lat": 0.013465665732742447,
        "lon": -172.8201517559485,
        "alt_km": 35787.181697327425,
        "timestamp": "2025-12-24T03:53:29.313989+00:00",
        "meta_object_name": "EUTELSAT 36D",
        "meta_object_id": "2024-059A",
        "meta_epoch": "2025-12-23T18:26:21.291072",
        "meta_mean_motion": 1.00272824,
        "meta_eccentricity": 3.44e-05,
        "meta_inclination": 0.0186,
        "meta_ra_of_asc_node": 36.1446,
        "meta_arg_of_pericenter": 331.6907,
        "meta_mean_anomaly": 37.1777,
        "meta_ephemeris_type": 0,
        "meta_classification_type": "U",
        "meta_norad_cat_id": 59346,
        "meta_element_set_no": 999,
        "meta_rev_at_epoch": 638,
        "meta_bstar": 0,
        "meta_mean_motion_dot": 1.77e-06,
        "meta_mean_motion_ddot": 0,
        "tle_line1": "1 59346U 24059A   25357.76830198  .00000177  00000+0  00000+0 0  9994",
        "tle_line2": "2 59346   0.0186  36.1446 0000344 331.6907  37.1777  1.00272824  6383"
      },
      "geometry": {
        "type": "Point",
        "coordinates": [
          -172.8201517559485,
          0.013465665732742447
        ]
      }
    }
  ]
}